{"fetched_at":"2026-05-03T06:27:58Z","count":17151,"tles":[{"name":"STARLINK-37524","line1":"1 68842U 26094D   26122.41670139 -.01729120  89804-3 -35758-2 0  9999","line2":"2 68842  97.2825 136.0688 0001357  95.2665 121.2261 15.99325693  2003","category":"Starlink"}]}