{
  "norad_id": 68842,
  "name": "STARLINK-37524",
  "history": [
    {
      "epoch": "2026-05-02T10:00:03.000096Z",
      "apogee_km": 277.1914739096155,
      "perigee_km": 275.3854628374993,
      "latitude_deg": -36.447774678547155,
      "longitude_deg": -59.66371180824016,
      "height_km": 290.7369839608828,
      "semi_major_axis_km": 6654.425468373557,
      "eccentricity": 0.0001357,
      "inclination_deg": 97.2825,
      "raan_deg": 136.0688,
      "arg_perigee_deg": 95.2665,
      "mean_anomaly_deg": 121.2261,
      "mean_motion_rev_day": 15.99325693
    }
  ]
}